[{"OBJECT_NAME":"STARLINK-4183","OBJECT_ID":"2022-076AE","EPOCH":"2026-03-09T10:38:59.720064","MEAN_MOTION":15.0884146,"ECCENTRICITY":0.00013138,"INCLINATION":53.2165,"RA_OF_ASC_NODE":85.2243,"ARG_OF_PERICENTER":83.7669,"MEAN_ANOMALY":276.3472,"EPHEMERIS_TYPE":0,"CLASSIFICATION_TYPE":"U","NORAD_CAT_ID":53014,"ELEMENT_SET_NO":999,"REV_AT_EPOCH":20294,"BSTAR":-3.888561e-6,"MEAN_MOTION_DOT":-3.5e-6,"MEAN_MOTION_DDOT":0},{"OBJECT_NAME":"NEONSAT-1A","OBJECT_ID":"2026-019A","EPOCH":"2026-03-09T21:53:31.879392","MEAN_MOTION":15.0780294,"ECCENTRICITY":0.00137261,"INCLINATION":97.411,"RA_OF_ASC_NODE":192.4819,"ARG_OF_PERICENTER":167.4713,"MEAN_ANOMALY":192.686,"EPHEMERIS_TYPE":0,"CLASSIFICATION_TYPE":"U","NORAD_CAT_ID":67614,"ELEMENT_SET_NO":999,"REV_AT_EPOCH":585,"BSTAR":0.00027109929,"MEAN_MOTION_DOT":4.096e-5,"MEAN_MOTION_DDOT":0}]
